NORAD_CAT_ID,OBJECT_NAME,OBJECT_TYPE,EPOCH,MEAN_MOTION,ECCENTRICITY,INCLINATION,RA_OF_ASC_NODE,ARG_OF_PERICENTER,MEAN_ANOMALY,BSTAR,MEAN_MOTION_DOT,MEAN_MOTION_DDOT,TLE_LINE0,TLE_LINE1,TLE_LINE2,SEMIMAJOR_AXIS,PERIOD,APOGEE,PERIGEE,DECAYED
56495.0,STARLINK-5529,PAYLOAD,2023-06-24 06:01:07,15.69928367,0.0003101,69.9989,120.0967,275.1318,84.9523,1.4217e-05,1.497e-05,0.0,0 STARLINK-5529,1 56495U 23064AZ  23175.25078278  .00001497  00000-0  14217-4 0  9991,2 56495  69.9989 120.0967 0003101 275.1318  84.9523 15.69928367  7361,6737.239,91.724,361.193,357.015,0.0
56495.0,STARLINK-5529,PAYLOAD,2023-06-24 22:50:22,15.69960894,0.0003335,69.9996,118.1275,259.0812,101.0009,0.00010113,0.00011983,0.0,0 STARLINK-5529,1 56495U 23064AZ  23175.95165405  .00011983  00000-0  10113-3 0  9998,2 56495  69.9996 118.1275 0003335 259.0812 101.0009 15.69960894  7471,6737.146,91.722,361.258,356.764,0.0
56495.0,STARLINK-5529,PAYLOAD,2023-06-25 06:29:09,15.69918122,0.0003218,70.0001,117.2327,263.6125,96.4705,-1.0698e-05,-1.498e-05,0.0,0 STARLINK-5529,1 56495U 23064AZ  23176.27025243 -.00001498  00000-0 -10698-4 0  9990,2 56495  70.0001 117.2327 0003218 263.6125  96.4705 15.69918122  7520,6737.268,91.725,361.301,356.965,0.0
56495.0,STARLINK-5529,PAYLOAD,2023-06-26 13:04:12,15.69927782,0.0003849,69.9999,113.6487,262.1639,97.912,3.5617e-05,4.073e-05,0.0,0 STARLINK-5529,1 56495U 23064AZ  23177.54458984  .00004073  00000-0  35617-4 0  9991,2 56495  69.9999 113.6487 0003849 262.1639  97.9120 15.69927782  7725,6737.241,91.724,361.699,356.512,0.0
56495.0,STARLINK-5529,PAYLOAD,2023-06-27 05:53:29,15.69919727,0.000355,70.0001,111.6788,260.5972,99.4823,3.2196e-06,1.74e-06,0.0,0 STARLINK-5529,1 56495U 23064AZ  23178.24547543  .00000174  00000-0  32196-5 0  9997,2 56495  70.0001 111.6788 0003550 260.5972  99.4823 15.69919727  7834,6737.264,91.724,361.52,356.737,0.0
56495.0,STARLINK-5529,PAYLOAD,2023-06-28 04:49:45,15.69926017,0.0003545,69.9993,108.9918,262.1182,97.9612,1.7961e-05,1.948e-05,0.0,0 STARLINK-5529,1 56495U 23064AZ  23179.20122381  .00001948  00000-0  17961-4 0  9995,2 56495  69.9993 108.9918 0003545 262.1182  97.9612 15.69926017  7985,6737.246,91.724,361.499,356.722,0.0
56495.0,STARLINK-5529,PAYLOAD,2023-06-29 05:17:47,15.69930586,0.0003565,69.9992,106.1249,259.3186,100.7609,2.3577e-06,7.1e-07,0.0,0 STARLINK-5529,1 56495U 23064AZ  23180.22068779  .00000071  00000-0  23577-5 0  9996,2 56495  69.9992 106.1249 0003565 259.3186 100.7609 15.69930586  8149,6737.233,91.724,361.499,356.696,0.0
56495.0,STARLINK-5529,PAYLOAD,2023-07-01 04:42:07,15.69918522,0.0003674,70.0004,100.5727,260.4247,99.6533,5.2366e-07,-1.5e-06,0.0,0 STARLINK-5529,1 56495U 23064AZ  23182.19591667 -.00000150  00000-0  52366-6 0  9999,2 56495  70.0004 100.5727 0003674 260.4247  99.6533 15.69918522  8459,6737.267,91.725,361.607,356.657,0.0
56495.0,STARLINK-5529,PAYLOAD,2023-07-01 12:20:52,15.69932958,0.0004041,69.9986,99.6758,258.4872,101.587,3.2476e-05,3.695e-05,0.0,0 STARLINK-5529,1 56495U 23064AZ  23182.51449210  .00003695  00000-0  32476-4 0  9995,2 56495  69.9986  99.6758 0004041 258.4872 101.5870 15.69932958  8509,6737.226,91.724,361.813,356.368,0.0
56495.0,STARLINK-5529,PAYLOAD,2023-07-02 02:06:38,15.69920052,0.0003641,69.9989,98.0636,264.4319,95.6462,4.7532e-06,3.59e-06,0.0,0 STARLINK-5529,1 56495U 23064AZ  23183.08794813  .00000359  00000-0  47532-5 0  9994,2 56495  69.9989  98.0636 0003641 264.4319  95.6462 15.69920052  8599,6737.263,91.724,361.581,356.675,0.0
56495.0,STARLINK-5529,PAYLOAD,2023-07-03 02:34:40,15.69930096,0.0003246,69.9997,95.1985,261.8953,98.1875,3.6293e-05,4.154e-05,0.0,0 STARLINK-5529,1 56495U 23064AZ  23184.10741182  .00004154  00000-0  36293-4 0  9997,2 56495  69.9997  95.1985 0003246 261.8953  98.1875 15.69930096  8752,6737.234,91.724,361.286,356.912,0.0
56495.0,STARLINK-5529,PAYLOAD,2023-07-03 11:45:11,15.69921935,0.0003201,69.9988,94.1235,264.8346,95.2484,-9.3698e-06,-1.339e-05,0.0,0 STARLINK-5529,1 56495U 23064AZ  23184.48971593 -.00001339  00000-0 -93698-5 0  9996,2 56495  69.9988  94.1235 0003201 264.8346  95.2484 15.69921935  8812,6737.257,91.724,361.279,356.966,0.0
56495.0,STARLINK-5529,PAYLOAD,2023-07-03 20:55:32,15.70070931,0.0004473,69.9979,93.0501,248.6508,111.421,0.0002173,0.00026162,0.0,0 STARLINK-5529,1 56495U 23064AZ  23184.87190314  .00026162  00000-0  21730-3 0  9998,2 56495  69.9979  93.0501 0004473 248.6508 111.4210 15.70070931  8875,6736.831,91.716,361.709,355.683,0.0
56495.0,STARLINK-5529,PAYLOAD,2023-07-04 04:34:22,15.69940069,0.0006706,69.9996,92.1529,304.2696,55.7864,-2.0394e-05,-2.67e-05,0.0,0 STARLINK-5529,1 56495U 23064AZ  23185.19054097 -.00002670  00000-0 -20394-4 0  9997,2 56495  69.9996  92.1529 0006706 304.2696  55.7864 15.69940069  8929,6737.205,91.723,363.588,354.552,0.0
56495.0,STARLINK-5529,PAYLOAD,2023-07-04 16:48:28,15.69929263,0.0003278,69.9983,90.7225,269.5791,90.5029,1.4528e-05,1.535e-05,0.0,0 STARLINK-5529,1 56495U 23064AZ  23185.70032954  .00001535  00000-0  14528-4 0  9991,2 56495  69.9983  90.7225 0003278 269.5791  90.5029 15.69929263  9005,6737.236,91.724,361.31,356.893,0.0
56495.0,STARLINK-5529,PAYLOAD,2023-07-05 03:30:44,15.69917294,0.0003639,69.9982,89.465,265.8026,94.2754,-1.3729e-05,-1.863e-05,0.0,0 STARLINK-5529,1 56495U 23064AZ  23186.14635035 -.00001863  00000-0 -13729-4 0  9997,2 56495  69.9982  89.4650 0003639 265.8026  94.2754 15.69917294  9076,6737.271,91.725,361.587,356.684,0.0
56495.0,STARLINK-5529,PAYLOAD,2023-07-06 03:58:46,15.69929569,0.0003351,69.9994,86.5999,270.632,89.4492,1.7886e-05,1.939e-05,0.0,0 STARLINK-5529,1 56495U 23064AZ  23187.16581504  .00001939  00000-0  17886-4 0  9991,2 56495  69.9994  86.5999 0003351 270.6320  89.4492 15.69929569  9236,6737.236,91.724,361.358,356.843,0.0
56495.0,STARLINK-5529,PAYLOAD,2023-07-07 18:12:34,15.69917068,0.0003739,69.9995,82.1199,267.3763,92.7005,-3.9087e-06,-6.83e-06,0.0,0 STARLINK-5529,1 56495U 23064AZ  23188.75873745 -.00000683  00000-0 -39087-5 0  9993,2 56495  69.9995  82.1199 0003739 267.3763  92.7005 15.69917068  9480,6737.271,91.725,361.655,356.617,0.0
56495.0,STARLINK-5529,PAYLOAD,2023-07-08 03:23:05,15.69929948,0.0002844,69.9997,81.0478,274.982,85.1051,1.4541e-05,1.537e-05,0.0,0 STARLINK-5529,1 56495U 23064AZ  23189.14103381  .00001537  00000-0  14541-4 0  9993,2 56495  69.9997  81.0478 0002844 274.9820  85.1051 15.69929948  9548,6737.234,91.724,361.015,357.183,0.0
56495.0,STARLINK-5529,PAYLOAD,2023-07-08 20:12:22,15.69905664,0.0003277,70.0007,79.0753,265.2406,94.8415,-3.5041e-05,-4.42e-05,0.0,0 STARLINK-5529,1 56495U 23064AZ  23189.84192865 -.00004420  00000-0 -35041-4 0  9999,2 56495  70.0007  79.0753 0003277 265.2406  94.8415 15.69905664  9652,6737.304,91.725,361.377,356.961,0.0
56495.0,STARLINK-5529,PAYLOAD,2023-07-09 02:19:22,15.69917143,0.0003614,70.0001,78.3586,266.7739,93.3043,-6.1965e-06,-9.58e-06,0.0,0 STARLINK-5529,1 56495U 23064AZ  23190.09679258 -.00000958  00000-0 -61965-5 0  9991,2 56495  70.0001  78.3586 0003614 266.7739  93.3043 15.69917143  9692,6737.271,91.725,361.571,356.701,0.0
56495.0,STARLINK-5529,PAYLOAD,2023-07-09 09:58:07,15.69934223,0.0004067,69.9978,77.4633,263.8189,96.2544,1.3622e-05,1.426e-05,0.0,0 STARLINK-5529,1 56495U 23064AZ  23190.41536522  .00001426  00000-0  13622-4 0  9998,2 56495  69.9978  77.4633 0004067 263.8189  96.2544 15.69934223  9747,6737.222,91.724,361.827,356.347,0.0
56495.0,STARLINK-5529,PAYLOAD,2023-07-09 19:08:38,15.69931476,0.0003216,70.0002,76.3894,261.451,98.6321,1.2672e-05,1.312e-05,0.0,0 STARLINK-5529,1 56495U 23064AZ  23190.79767088  .00001312  00000-0  12672-4 0  9990,2 56495  70.0002  76.3894 0003216 261.4510  98.6321 15.69931476  9805,6737.23,91.724,361.262,356.928,0.0
56495.0,STARLINK-5529,PAYLOAD,2023-07-11 01:43:40,15.69931086,0.0003277,69.9986,72.8043,258.7615,101.3213,1.8542e-05,2.018e-05,0.0,0 STARLINK-5529,1 56495U 23064AZ  23192.07200174  .00002018  00000-0  18542-4 0  9997,2 56495  69.9986  72.8043 0003277 258.7615 101.3213 15.69931086 10005,6737.231,91.724,361.304,356.888,0.0
56495.0,STARLINK-5529,PAYLOAD,2023-07-11 20:04:42,15.69927546,0.0003701,69.9995,70.6542,264.1742,95.9032,8.6888e-06,8.32e-06,0.0,0 STARLINK-5529,1 56495U 23064AZ  23192.83660312  .00000832  00000-0  86888-5 0  9996,2 56495  69.9995  70.6542 0003701 264.1742  95.9032 15.69927546 10125,6737.241,91.724,361.6,356.613,0.0
56495.0,STARLINK-5529,PAYLOAD,2023-07-13 16:25:31,15.69927018,0.0003668,69.9993,65.4599,265.6435,94.4341,2.6678e-06,1.08e-06,0.0,0 STARLINK-5529,1 56495U 23064AZ  23194.68439039  .00000108  00000-0  26678-5 0  9998,2 56495  69.9993  65.4599 0003668 265.6435  94.4341 15.69927018 10417,6737.243,91.724,361.579,356.637,0.0
56495.0,STARLINK-5529,PAYLOAD,2023-07-14 01:36:02,15.69909628,0.0003354,70.0002,64.3835,274.0714,86.0098,-3.2286e-05,-4.091e-05,0.0,0 STARLINK-5529,1 56495U 23064AZ  23195.06669477 -.00004091  00000-0 -32286-4 0  9990,2 56495  70.0002  64.3835 0003354 274.0714  86.0098 15.69909628 10477,6737.293,91.725,361.417,356.898,0.0
56495.0,STARLINK-5529,PAYLOAD,2023-07-14 16:53:33,15.69921551,0.0003455,69.9983,62.5912,271.0158,89.0642,-4.6842e-06,-7.76e-06,0.0,0 STARLINK-5529,1 56495U 23064AZ  23195.70386015 -.00000776  00000-0 -46842-5 0  9995,2 56495  69.9983  62.5912 0003455 271.0158  89.0642 15.69921551 10577,6737.258,91.724,361.451,356.796,0.0
56495.0,STARLINK-5529,PAYLOAD,2023-07-15 17:21:35,15.69922296,0.0003184,69.9995,59.7278,266.8985,93.1847,-6.9138e-06,-1.044e-05,0.0,0 STARLINK-5529,1 56495U 23064AZ  23196.72332855 -.00001044  00000-0 -69138-5 0  9993,2 56495  69.9995  59.7278 0003184 266.8985  93.1847 15.69922296 10730,6737.256,91.724,361.266,356.976,0.0
56495.0,STARLINK-5529,PAYLOAD,2023-07-16 23:56:37,15.69935997,0.0003828,69.9992,56.1444,270.2372,89.8385,3.895e-05,4.476e-05,0.0,0 STARLINK-5529,1 56495U 23064AZ  23197.99765741  .00004476  00000-0  38950-4 0  9994,2 56495  69.9992  56.1444 0003828 270.2372  89.8385 15.69935997 10930,6737.217,91.723,361.661,356.503,0.0
